start=new Date('2022-03-07T00:00:00.000Z').valueOf();
sats=[{"EPOCH":"2022-03-06T22:00:00.999936","CLASSIFICATION_TYPE":"U","LAUNCH_DATE":"2021-11-13","INCLINATION":"53.2157","DECAY_DATE":null,"REF_FRAME":"TEME","REV_AT_EPOCH":"1873","GP_ID":"198082273","PERIAPSIS":"538.335","MEAN_ANOMALY":"353.2403","COUNTRY_CODE":"US","MEAN_MOTION_DDOT":"0.0000000000000","NORAD_CAT_ID":"49426","ECCENTRICITY":"0.00018920","FILE":"3348140","TLE_LINE2":"2 49426  53.2157 320.2370 0001892  46.6892 353.2403 15.08873333 18732","RCS_SIZE":"LARGE","OBJECT_NAME":"STARLINK-3114","CENTER_NAME":"EARTH","SITE":"AFETR","TIME_SYSTEM":"UTC","MEAN_MOTION_DOT":"-0.00056543","SEMIMAJOR_AXIS":"6917.779","PERIOD":"95.435","MEAN_ELEMENT_THEORY":"SGP4","EPHEMERIS_TYPE":"0","APOAPSIS":"540.952","RA_OF_ASC_NODE":"320.2370","OBJECT_TYPE":"PAYLOAD","OBJECT_ID":"2021-104U","BSTAR":"-0.00355930000000","TLE_LINE1":"1 49426U 21104U   22065.91667824 -.00056543  00000-0 -35593-2 0  9993","ELEMENT_SET_NO":"999","MEAN_MOTION":"15.08873333","ARG_OF_PERICENTER":"46.6892"},{"MEAN_MOTION_DDOT":"0.0000000000000","NORAD_CAT_ID":"49427","FILE":"3347638","ECCENTRICITY":"0.00017280","RCS_SIZE":"LARGE","TLE_LINE2":"2 49427  53.2154 321.7318 0001728  55.0466  33.2865 15.08816189  3576","SITE":"AFETR","TIME_SYSTEM":"UTC","CENTER_NAME":"EARTH","OBJECT_NAME":"STARLINK-3131","MEAN_MOTION_DOT":"0.00058602","SEMIMAJOR_AXIS":"6917.953","EPHEMERIS_TYPE":"0","MEAN_ELEMENT_THEORY":"SGP4","PERIOD":"95.439","APOAPSIS":"541.014","RA_OF_ASC_NODE":"321.7318","BSTAR":"0.00367210000000","TLE_LINE1":"1 49427U 21104V   22065.58334491  .00058602  00000-0  36721-2 0  9998","OBJECT_TYPE":"PAYLOAD","OBJECT_ID":"2021-104V","MEAN_MOTION":"15.08816189","ELEMENT_SET_NO":"999","ARG_OF_PERICENTER":"55.0466","EPOCH":"2022-03-06T14:00:01.000224","CLASSIFICATION_TYPE":"U","LAUNCH_DATE":"2021-11-13","INCLINATION":"53.2154","DECAY_DATE":null,"REV_AT_EPOCH":"357","REF_FRAME":"TEME","GP_ID":"198069112","MEAN_ANOMALY":"33.2865","PERIAPSIS":"538.623","COUNTRY_CODE":"US"},{"SITE":"AFETR","TIME_SYSTEM":"UTC","CENTER_NAME":"EARTH","OBJECT_NAME":"STARLINK-3121","MEAN_MOTION_DOT":"0.00086433","NORAD_CAT_ID":"49428","MEAN_MOTION_DDOT":"0.0000000000000","RCS_SIZE":"LARGE","TLE_LINE2":"2 49428  53.2193 321.7455 0002160  47.1955  95.8311 15.08828755  3569","FILE":"3347638","ECCENTRICITY":"0.00021600","TLE_LINE1":"1 49428U 21104W   22065.58334491  .00086433  00000-0  53845-2 0  9998","BSTAR":"0.00538450000000","OBJECT_ID":"2021-104W","OBJECT_TYPE":"PAYLOAD","RA_OF_ASC_NODE":"321.7455","ARG_OF_PERICENTER":"47.1955","MEAN_MOTION":"15.08828755","ELEMENT_SET_NO":"999","SEMIMAJOR_AXIS":"6917.915","APOAPSIS":"541.274","EPHEMERIS_TYPE":"0","MEAN_ELEMENT_THEORY":"SGP4","PERIOD":"95.438","DECAY_DATE":null,"REV_AT_EPOCH":"356","REF_FRAME":"TEME","EPOCH":"2022-03-06T14:00:01.000224","LAUNCH_DATE":"2021-11-13","INCLINATION":"53.2193","CLASSIFICATION_TYPE":"U","COUNTRY_CODE":"US","MEAN_ANOMALY":"95.8311","PERIAPSIS":"538.285","GP_ID":"198069861"},{"ARG_OF_PERICENTER":"48.6836","ELEMENT_SET_NO":"999","MEAN_MOTION":"15.08814834","OBJECT_TYPE":"PAYLOAD","OBJECT_ID":"2021-104Y","TLE_LINE1":"1 49430U 21104Y   22065.58334491  .00056123  00000-0  35189-2 0  9995","BSTAR":"0.00351890000000","RA_OF_ASC_NODE":"321.7384","APOAPSIS":"541.018","PERIOD":"95.439","MEAN_ELEMENT_THEORY":"SGP4","EPHEMERIS_TYPE":"0","SEMIMAJOR_AXIS":"6917.957","MEAN_MOTION_DOT":"0.00056123","CENTER_NAME":"EARTH","OBJECT_NAME":"STARLINK-3138","TIME_SYSTEM":"UTC","SITE":"AFETR","TLE_LINE2":"2 49430  53.2172 321.7384 0001729  48.6836  59.6473 15.08814834  3575","RCS_SIZE":"LARGE","ECCENTRICITY":"0.00017290","FILE":"3347638","NORAD_CAT_ID":"49430","MEAN_MOTION_DDOT":"0.0000000000000","COUNTRY_CODE":"US","PERIAPSIS":"538.626","MEAN_ANOMALY":"59.6473","GP_ID":"198068611","REF_FRAME":"TEME","REV_AT_EPOCH":"357","DECAY_DATE":null,"INCLINATION":"53.2172","LAUNCH_DATE":"2021-11-13","CLASSIFICATION_TYPE":"U","EPOCH":"2022-03-06T14:00:01.000224"},{"MEAN_MOTION_DOT":"0.00059019","TIME_SYSTEM":"UTC","SITE":"AFETR","CENTER_NAME":"EARTH","OBJECT_NAME":"STARLINK-3153","FILE":"3347638","ECCENTRICITY":"0.00022220","RCS_SIZE":"LARGE","TLE_LINE2":"2 49431  53.2147 321.7401 0002222  54.0416 269.1122 15.08800913  3563","MEAN_MOTION_DDOT":"0.0000000000000","NORAD_CAT_ID":"49431","MEAN_MOTION":"15.08800913","ELEMENT_SET_NO":"999","ARG_OF_PERICENTER":"54.0416","RA_OF_ASC_NODE":"321.7401","BSTAR":"0.00369940000000","TLE_LINE1":"1 49431U 21104Z   22065.58334491  .00059019  00000-0  36994-2 0  9998","OBJECT_TYPE":"PAYLOAD","OBJECT_ID":"2021-104Z","EPHEMERIS_TYPE":"0","PERIOD":"95.440","MEAN_ELEMENT_THEORY":"SGP4","APOAPSIS":"541.402","SEMIMAJOR_AXIS":"6918.000","REV_AT_EPOCH":"356","REF_FRAME":"TEME","DECAY_DATE":null,"CLASSIFICATION_TYPE":"U","LAUNCH_DATE":"2021-11-13","INCLINATION":"53.2147","EPOCH":"2022-03-06T14:00:01.000224","MEAN_ANOMALY":"269.1122","PERIAPSIS":"538.328","COUNTRY_CODE":"US","GP_ID":"198068861"},{"DECAY_DATE":null,"REV_AT_EPOCH":"1887","REF_FRAME":"TEME","EPOCH":"2022-03-06T22:00:00.999936","LAUNCH_DATE":"2021-11-13","INCLINATION":"53.2165","CLASSIFICATION_TYPE":"U","COUNTRY_CODE":"US","MEAN_ANOMALY":"255.4986","PERIAPSIS":"538.388","GP_ID":"198082180","SITE":"AFETR","TIME_SYSTEM":"UTC","OBJECT_NAME":"STARLINK-3158","CENTER_NAME":"EARTH","MEAN_MOTION_DOT":"-0.00018641","NORAD_CAT_ID":"49432","MEAN_MOTION_DDOT":"0.0000000000000","RCS_SIZE":"LARGE","TLE_LINE2":"2 49432  53.2165 310.2597 0001959  54.2248 255.4986 15.08840776 18871","FILE":"3348134","ECCENTRICITY":"0.00019590","BSTAR":"-0.00115610000000","TLE_LINE1":"1 49432U 21104AA  22065.91667824 -.00018641  00000-0 -11561-2 0  9996","OBJECT_ID":"2021-104AA","OBJECT_TYPE":"PAYLOAD","RA_OF_ASC_NODE":"310.2597","ARG_OF_PERICENTER":"54.2248","MEAN_MOTION":"15.08840776","ELEMENT_SET_NO":"999","SEMIMAJOR_AXIS":"6917.878","APOAPSIS":"541.098","EPHEMERIS_TYPE":"0","MEAN_ELEMENT_THEORY":"SGP4","PERIOD":"95.438"},{"FILE":"3347638","ECCENTRICITY":"0.00017720","RCS_SIZE":"LARGE","TLE_LINE2":"2 49433  53.2169 301.8827 0001772  51.9979 181.3690 15.15814623  3611","MEAN_MOTION_DDOT":"0.0000000000000","NORAD_CAT_ID":"49433","MEAN_MOTION_DOT":"-0.00492060","SITE":"AFETR","TIME_SYSTEM":"UTC","CENTER_NAME":"EARTH","OBJECT_NAME":"STARLINK-3079","EPHEMERIS_TYPE":"0","MEAN_ELEMENT_THEORY":"SGP4","PERIOD":"94.998","APOAPSIS":"519.731","SEMIMAJOR_AXIS":"6896.644","MEAN_MOTION":"15.15814623","ELEMENT_SET_NO":"999","ARG_OF_PERICENTER":"51.9979","RA_OF_ASC_NODE":"301.8827","TLE_LINE1":"1 49433U 21104AB  22065.58334491 -.00492060  00000-0 -27210-1 0  9999","BSTAR":"-0.02721000000000","OBJECT_ID":"2021-104AB","OBJECT_TYPE":"PAYLOAD","CLASSIFICATION_TYPE":"U","LAUNCH_DATE":"2021-11-13","INCLINATION":"53.2169","EPOCH":"2022-03-06T14:00:01.000224","REV_AT_EPOCH":"361","REF_FRAME":"TEME","DECAY_DATE":null,"GP_ID":"198069361","MEAN_ANOMALY":"181.3690","PERIAPSIS":"517.286","COUNTRY_CODE":"US"},{"TIME_SYSTEM":"UTC","SITE":"AFETR","CENTER_NAME":"EARTH","OBJECT_NAME":"STARLINK-3134","MEAN_MOTION_DOT":"-0.00014796","NORAD_CAT_ID":"49434","MEAN_MOTION_DDOT":"0.0000000000000","RCS_SIZE":"LARGE","TLE_LINE2":"2 49434  53.2182 320.2468 0001955  50.9946  88.9507 15.08844257 18735","ECCENTRICITY":"0.00019550","FILE":"3348071","BSTAR":"-0.00091328000000","TLE_LINE1":"1 49434U 21104AC  22065.91667824 -.00014796  00000-0 -91328-3 0  9995","OBJECT_ID":"2021-104AC","OBJECT_TYPE":"PAYLOAD","RA_OF_ASC_NODE":"320.2468","ARG_OF_PERICENTER":"50.9946","MEAN_MOTION":"15.08844257","ELEMENT_SET_NO":"999","SEMIMAJOR_AXIS":"6917.867","APOAPSIS":"541.085","EPHEMERIS_TYPE":"0","PERIOD":"95.437","MEAN_ELEMENT_THEORY":"SGP4","DECAY_DATE":null,"REV_AT_EPOCH":"1873","REF_FRAME":"TEME","EPOCH":"2022-03-06T22:00:00.999936","INCLINATION":"53.2182","LAUNCH_DATE":"2021-11-13","CLASSIFICATION_TYPE":"U","COUNTRY_CODE":"US","MEAN_ANOMALY":"88.9507","PERIAPSIS":"538.380","GP_ID":"198080904"},{"REV_AT_EPOCH":"1898","REF_FRAME":"TEME","DECAY_DATE":null,"CLASSIFICATION_TYPE":"U","INCLINATION":"53.2173","LAUNCH_DATE":"2021-11-13","EPOCH":"2022-03-06T22:00:00.999936","MEAN_ANOMALY":"197.9250","PERIAPSIS":"477.361","COUNTRY_CODE":"US","GP_ID":"198080918","MEAN_MOTION_DOT":"-0.00314220","TIME_SYSTEM":"UTC","SITE":"AFETR","OBJECT_NAME":"STARLINK-3117","CENTER_NAME":"EARTH","FILE":"3348072","ECCENTRICITY":"0.00019750","RCS_SIZE":"LARGE","TLE_LINE2":"2 49435  53.2173 302.5286 0001975  37.8685 197.9250 15.29029028 18980","MEAN_MOTION_DDOT":"0.0000000000000","NORAD_CAT_ID":"49435","MEAN_MOTION":"15.29029028","ELEMENT_SET_NO":"999","ARG_OF_PERICENTER":"37.8685","RA_OF_ASC_NODE":"302.5286","BSTAR":"-0.01145700000000","TLE_LINE1":"1 49435U 21104AD  22065.91667824 -.00314220  00000-0 -11457-1 0  9994","OBJECT_TYPE":"PAYLOAD","OBJECT_ID":"2021-104AD","EPHEMERIS_TYPE":"0","MEAN_ELEMENT_THEORY":"SGP4","PERIOD":"94.177","APOAPSIS":"480.070","SEMIMAJOR_AXIS":"6856.851"},{"SEMIMAJOR_AXIS":"6896.975","EPHEMERIS_TYPE":"0","PERIOD":"95.005","MEAN_ELEMENT_THEORY":"SGP4","APOAPSIS":"520.052","RA_OF_ASC_NODE":"301.8825","BSTAR":"-0.02780000000000","TLE_LINE1":"1 49436U 21104AE  22065.58334491 -.00505505  00000-0 -27800-1 0  9996","OBJECT_TYPE":"PAYLOAD","OBJECT_ID":"2021-104AE","MEAN_MOTION":"15.15705319","ELEMENT_SET_NO":"999","ARG_OF_PERICENTER":"43.3508","MEAN_MOTION_DDOT":"0.0000000000000","NORAD_CAT_ID":"49436","ECCENTRICITY":"0.00017570","FILE":"3347638","RCS_SIZE":"LARGE","TLE_LINE2":"2 49436  53.2169 301.8825 0001757  43.3508 172.0971 15.15705319  3618","SITE":"AFETR","TIME_SYSTEM":"UTC","CENTER_NAME":"EARTH","OBJECT_NAME":"STARLINK-3049","MEAN_MOTION_DOT":"-0.00505505","GP_ID":"198069113","MEAN_ANOMALY":"172.0971","PERIAPSIS":"517.628","COUNTRY_CODE":"US","EPOCH":"2022-03-06T14:00:01.000224","CLASSIFICATION_TYPE":"U","INCLINATION":"53.2169","LAUNCH_DATE":"2021-11-13","DECAY_DATE":null,"REV_AT_EPOCH":"361","REF_FRAME":"TEME"}];
